$$SOE
2460161.500000000, A.D. 2023-Aug-05 00:00:00.0000, -8.487002977503425E+05, 5.133996214857509E+08, 1.070645581243396E+07,
2460168.500000000, A.D. 2023-Aug-12 00:00:00.0000, -1.024575390438212E+07, 5.134641882373326E+08, 1.060843231979045E+07,
2460175.500000000, A.D. 2023-Aug-19 00:00:00.0000, -1.963911417024764E+07, 5.133448080985937E+08, 1.050660739302939E+07,
2460182.500000000, A.D. 2023-Aug-26 00:00:00.0000, -2.902542578218313E+07, 5.130416854229555E+08, 1.040102103529695E+07,
2460189.500000000, A.D. 2023-Sep-02 00:00:00.0000, -3.840134086870169E+07, 5.125550764708850E+08, 1.029171423562810E+07,
2460196.500000000, A.D. 2023-Sep-09 00:00:00.0000, -4.776351946862599E+07, 5.118852890846372E+08, 1.017872894928712E+07,
2460203.500000000, A.D. 2023-Sep-16 00:00:00.0000, -5.710862981277296E+07, 5.110326822025618E+08, 1.006210804691932E+07,
2460210.500000000, A.D. 2023-Sep-23 00:00:00.0000, -6.643334800329449E+07, 5.099976654999529E+08, 9.941895217839897E+06,
2460217.500000000, A.D. 2023-Sep-30 00:00:00.0000, -7.573435743121889E+07, 5.087807003479985E+08, 9.818134955994040E+06,
2460224.500000000, A.D. 2023-Oct-07 00:00:00.0000, -8.500835028598340E+07, 5.073823015486415E+08, 9.690872800152332E+06,
2460231.500000000, A.D. 2023-Oct-14 00:00:00.0000, -9.425203011724220E+07, 5.058030365306602E+08, 9.560155462390780E+06,
2460238.500000000, A.D. 2023-Oct-21 00:00:00.0000, -1.034621122223369E+08, 5.040435236094289E+08, 9.426030680002928E+06,
2460245.500000000, A.D. 2023-Oct-28 00:00:00.0000, -1.126353232846119E+08, 5.021044315723532E+08, 9.288547106337726E+06,
2460252.500000000, A.D. 2023-Nov-04 00:00:00.0000, -1.217684015121416E+08, 4.999864798198151E+08, 9.147754292393327E+06,
2460259.500000000, A.D. 2023-Nov-11 00:00:00.0000, -1.308580970991824E+08, 4.976904384607191E+08, 9.003702694071651E+06,
2460266.500000000, A.D. 2023-Nov-18 00:00:00.0000, -1.399011727911693E+08, 4.952171282970276E+08, 8.856443679946095E+06,
2460273.500000000, A.D. 2023-Nov-25 00:00:00.0000, -1.488944044812631E+08, 4.925674207185287E+08, 8.706029534950197E+06,
2460280.500000000, A.D. 2023-Dec-02 00:00:00.0000, -1.578345818116746E+08, 4.897422374957600E+08, 8.552513456730068E+06,
2460287.500000000, A.D. 2023-Dec-09 00:00:00.0000, -1.667185087036111E+08, 4.867425504121463E+08, 8.395949532894641E+06,
2460294.500000000, A.D. 2023-Dec-16 00:00:00.0000, -1.755430035297360E+08, 4.835693807486119E+08, 8.236392673904389E+06,
2460301.500000000, A.D. 2023-Dec-23 00:00:00.0000, -1.843048985817296E+08, 4.802237993091669E+08, 8.073898525773555E+06,
2460308.500000000, A.D. 2023-Dec-30 00:00:00.0000, -1.930010401737018E+08, 4.767069280381504E+08, 7.908523571054935E+06,
2460315.500000000, A.D. 2024-Jan-06 00:00:00.0000, -2.016282911530124E+08, 4.730199408688786E+08, 7.740325387444854E+06,
2460322.500000000, A.D. 2024-Jan-13 00:00:00.0000, -2.101835326449121E+08, 4.691640619944146E+08, 7.569362625145137E+06,
2460329.500000000, A.D. 2024-Jan-20 00:00:00.0000, -2.186636638089039E+08, 4.651405646435887E+08, 7.395694842623532E+06,
2460336.500000000, A.D. 2024-Jan-27 00:00:00.0000, -2.270656016366053E+08, 4.609507710148184E+08, 7.219382439789921E+06,
2460343.500000000, A.D. 2024-Feb-03 00:00:00.0000, -2.353862812197589E+08, 4.565960524184940E+08, 7.040486650059491E+06,
2460350.500000000, A.D. 2024-Feb-10 00:00:00.0000, -2.436226562117584E+08, 4.520778293358047E+08, 6.859069541868150E+06,
2460357.500000000, A.D. 2024-Feb-17 00:00:00.0000, -2.517716993450331E+08, 4.473975714013435E+08, 6.675194017408669E+06,
2460364.500000000, A.D. 2024-Feb-24 00:00:00.0000, -2.598304029693378E+08, 4.425567973240775E+08, 6.488923806365162E+06,
2460371.500000000, A.D. 2024-Mar-02 00:00:00.0000, -2.677957795823839E+08, 4.375570747140681E+08, 6.300323449197769E+06,
2460378.500000000, A.D. 2024-Mar-09 00:00:00.0000, -2.756648622145832E+08, 4.324000197519050E+08, 6.109458252029389E+06,
2460385.500000000, A.D. 2024-Mar-16 00:00:00.0000, -2.834347042731231E+08, 4.270872968977126E+08, 5.916394192951381E+06,
2460392.500000000, A.D. 2024-Mar-23 00:00:00.0000, -2.911023789497693E+08, 4.216206197484092E+08, 5.721197879824549E+06,
2460399.500000000, A.D. 2024-Mar-30 00:00:00.0000, -2.986649804345118E+08, 4.160017530168069E+08, 5.523936762845367E+06,
2460406.500000000, A.D. 2024-Apr-06 00:00:00.0000, -3.061196266785481E+08, 4.102325122648700E+08, 5.324679303115010E+06,
2460413.500000000, A.D. 2024-Apr-13 00:00:00.0000, -3.134634601549256E+08, 4.043147622252560E+08, 5.123494839967310E+06,
2460420.500000000, A.D. 2024-Apr-20 00:00:00.0000, -3.206936475706581E+08, 3.982504163866134E+08, 4.920453463156641E+06,
2460427.500000000, A.D. 2024-Apr-27 00:00:00.0000, -3.278073800485338E+08, 3.920414372817076E+08, 4.715625983092278E+06,
2460434.500000000, A.D. 2024-May-04 00:00:00.0000, -3.348018736908730E+08, 3.856898367747343E+08, 4.509083933595926E+06,
2460441.500000000, A.D. 2024-May-11 00:00:00.0000, -3.416743702871581E+08, 3.791976762452921E+08, 4.300899577102274E+06,
2460448.500000000, A.D. 2024-May-18 00:00:00.0000, -3.484221380840667E+08, 3.725670666900070E+08, 4.091145906686336E+06,
2460455.500000000, A.D. 2024-May-25 00:00:00.0000, -3.550424725937856E+08, 3.658001687342020E+08, 3.879896642233282E+06,
2460462.500000000, A.D. 2024-Jun-01 00:00:00.0000, -3.615326973813583E+08, 3.588991924957469E+08, 3.667226210768372E+06,
2460469.500000000, A.D. 2024-Jun-08 00:00:00.0000, -3.678901645852922E+08, 3.518663972776364E+08, 3.453209686704859E+06,
2460476.500000000, A.D. 2024-Jun-15 00:00:00.0000, -3.741122547725697E+08, 3.447040916337756E+08, 3.237922700156689E+06,
2460483.500000000, A.D. 2024-Jun-22 00:00:00.0000, -3.801963771344382E+08, 3.374146349827210E+08, 3.021441501759931E+06,
2460490.500000000, A.D. 2024-Jun-29 00:00:00.0000, -3.861399721458622E+08, 3.300004389491880E+08, 2.803843229915872E+06,
2460497.500000000, A.D. 2024-Jul-06 00:00:00.0000, -3.919405140427859E+08, 3.224639659624286E+08, 2.585205936087459E+06,
2460504.500000000, A.D. 2024-Jul-13 00:00:00.0000, -3.975955111664788E+08, 3.148077279334995E+08, 2.365608420431882E+06,
2460511.500000000, A.D. 2024-Jul-20 00:00:00.0000, -4.031025061609915E+08, 3.070342861583666E+08, 2.145130153844327E+06,
2460518.500000000, A.D. 2024-Jul-27 00:00:00.0000, -4.084590766798978E+08, 2.991462514864383E+08, 1.923851268127501E+06,
2460525.500000000, A.D. 2024-Aug-03 00:00:00.0000, -4.136628363291793E+08, 2.911462843778931E+08, 1.701852558591023E+06,
2460532.500000000, A.D. 2024-Aug-10 00:00:00.0000, -4.187114356810992E+08, 2.830370948435500E+08, 1.479215483417585E+06,
2460539.500000000, A.D. 2024-Aug-17 00:00:00.0000, -4.236025633130804E+08, 2.748214422880063E+08, 1.256022157015637E+06,
2460546.500000000, A.D. 2024-Aug-24 00:00:00.0000, -4.283339468450701E+08, 2.665021352336238E+08, 1.032355332671180E+06,
2460553.500000000, A.D. 2024-Aug-31 00:00:00.0000, -4.329033538604929E+08, 2.580820308639929E+08, 8.082983585283011E+05,
2460560.500000000, A.D. 2024-Sep-07 00:00:00.0000, -4.373085923453349E+08, 2.495640345130475E+08, 5.839350833828747E+05,
2460567.500000000, A.D. 2024-Sep-14 00:00:00.0000, -4.415475105598576E+08, 2.409511000948662E+08, 3.593497855817676E+05,
2460574.500000000, A.D. 2024-Sep-21 00:00:00.0000, -4.456179983721319E+08, 2.322462318856263E+08, 1.346273445409387E+05,
2460581.500000000, A.D. 2024-Sep-28 00:00:00.0000, -4.495179905415807E+08, 2.234524844297179E+08, -9.014656447201967E+04,
2460588.500000000, A.D. 2024-Oct-05 00:00:00.0000, -4.532454682815277E+08, 2.145729605710073E+08, -3.148855888203681E+05,
2460595.500000000, A.D. 2024-Oct-12 00:00:00.0000, -4.567984594598873E+08, 2.056108105867974E+08, -5.395028535934240E+05,
2460602.500000000, A.D. 2024-Oct-19 00:00:00.0000, -4.601750391896149E+08, 1.965692321516289E+08, -7.639110149816126E+05,
2460609.500000000, A.D. 2024-Oct-26 00:00:00.0000, -4.633733308419688E+08, 1.874514703287633E+08, -9.880222745895386E+05,
2460616.500000000, A.D. 2024-Nov-02 00:00:00.0000, -4.663915072249315E+08, 1.782608174401382E+08, -1.211748390436716E+06,
2460623.500000000, A.D. 2024-Nov-09 00:00:00.0000, -4.692277918295784E+08, 1.690006128343152E+08, -1.435000691786140E+06,
2460630.500000000, A.D. 2024-Nov-16 00:00:00.0000, -4.718804601179141E+08, 1.596742425513970E+08, -1.657690100116417E+06,
2460637.500000000, A.D. 2024-Nov-23 00:00:00.0000, -4.743478408046864E+08, 1.502851388337202E+08, -1.879727164572671E+06,
2460644.500000000, A.D. 2024-Nov-30 00:00:00.0000, -4.766283169242431E+08, 1.408367794383649E+08, -2.101022134420283E+06,
2460651.500000000, A.D. 2024-Dec-07 00:00:00.0000, -4.787203262621719E+08, 1.313326871706648E+08, -2.321485072501913E+06,
2460658.500000000, A.D. 2024-Dec-14 00:00:00.0000, -4.806223618395416E+08, 1.217764308609170E+08, -2.541025846406743E+06,
2460665.500000000, A.D. 2024-Dec-21 00:00:00.0000, -4.823329747684201E+08, 1.121716265417302E+08, -2.759553886050619E+06,
2460672.500000000, A.D. 2024-Dec-28 00:00:00.0000, -4.838507775065926E+08, 1.025219358579045E+08, -2.976978131023414E+06,
2460679.500000000, A.D. 2025-Jan-04 00:00:00.0000, -4.851744449123665E+08, 9.283106408420150E+07, -3.193207211423524E+06,
2460686.500000000, A.D. 2025-Jan-11 00:00:00.0000, -4.863027149184296E+08, 8.310275940835379E+07, -3.408149559156790E+06,
2460693.500000000, A.D. 2025-Jan-18 00:00:00.0000, -4.872343897413067E+08, 7.334081255801490E+07, -3.621713440541141E+06,
2460700.500000000, A.D. 2025-Jan-25 00:00:00.0000, -4.879683373828182E+08, 6.354905629556337E+07, -3.833806971189637E+06,
2460707.500000000, A.D. 2025-Feb-01 00:00:00.0000, -4.885034932331979E+08, 5.373136474925342E+07, -4.044338132788951E+06,
2460714.500000000, A.D. 2025-Feb-08 00:00:00.0000, -4.888388617162947E+08, 4.389165259875821E+07, -4.253214795294387E+06,
2460721.500000000, A.D. 2025-Feb-15 00:00:00.0000, -4.889735179469259E+08, 3.403387409338179E+07, -4.460344748643300E+06,
2460728.500000000, A.D. 2025-Feb-22 00:00:00.0000, -4.889066093001186E+08, 2.416202183741357E+07, -4.665635758206502E+06,
$$EOE